O3B MPOWER F1           
1 54755U 22174A   23362.47749591 -.00000024  00000+0  00000+0 0  9999
2 54755   0.0569  15.0772 0006036 275.1065 144.6967  5.00118446 20256
